OPTICUBE 04             
1 41851U 16067D   24209.03348969  .00003634  00000+0  27368-3 0  9992
2 41851  98.0784  15.6554 0017019 283.4719  76.4609 15.03081590421220
AEROCUBE 8D             
1 41852U 16067E   24208.96453450  .00009255  00000+0  59740-3 0  9990
2 41852  98.1106  20.3866 0004564 343.6980  16.4099 15.08501629421399
AEROCUBE 8C             
1 41853U 16067F   24208.91297117  .00008579  00000+0  55472-3 0  9998
2 41853  98.0919  18.8131 0006759 263.9292  96.1164 15.08455142421370
PROMETHEUS 2-1          
1 41854U 16067G   24208.45522473  .00021981  00000+0  10648-2 0  9991
2 41854  98.1017  26.3526 0011524 282.3350  77.6592 15.18513105421698
PROMETHEUS 2-3          
1 41855U 16067H   24208.45239595  .00021536  00000+0  10451-2 0  9990
2 41855  98.0948  25.7997 0009741 292.8223  67.1980 15.18472689421695
AALTO-1                 
1 42775U 17036L   24208.65188405  .00206300  00000+0  11045-2 0  9998
2 42775  97.0967 239.0756 0004078 113.0273 247.1425 15.79746843395313
CORVUS BC2              
1 42846U 17042X   24209.47070555  .00004758  00000+0  40624-3 0  9990
2 42846  97.3771  32.3387 0006260 287.0607  72.9930 14.98109096383472
CORVUS BC1              
1 42847U 17042Y   24209.09363150  .00003890  00000+0  33169-3 0  9997
2 42847  97.3740  32.3916 0007083 285.5895  74.4546 14.98254275383439
MIRATA                  
1 43015U 17073C   24209.20268322  .00023883  00000+0  10700-2 0  9996
2 43015  97.5898  93.5211 0166336 123.7492 237.9712 15.09612898362365
MAKERSAT 0              
1 43016U 17073D   24209.14855168  .00015731  00000+0  86729-3 0  9998
2 43016  97.5744  87.0362 0194059 146.8887 214.4662 14.99331565361908
GOMX-4B                 
1 43196U 18015E   24209.21462381  .00087491  00000+0  71964-3 0  9990
2 43196  97.6059  26.0823 0006946 169.1528 190.9885 15.70112539361799
GOMX-4A                 
1 43197U 18015F   24209.43151753  .00286423  32780-4  89257-3 0  9998
2 43197  97.5938  32.4189 0004794 189.8578 170.2602 15.91533200362248
SIRION PATHFINDER-2     
1 43759U 18099B   24208.77202959  .00007371  00000+0  54697-3 0  9993
2 43759  97.5254 263.8081 0011759 150.3196 209.8700 15.03289493308458
CORVUS BC4              
1 43767U 18099K   24209.42327785  .00005804  00000+0  44003-3 0  9999
2 43767  97.5109 261.5304 0010478 202.0384 158.0392 15.02577884308433
MOVE-II                 
1 43780U 18099Y   24208.61010020  .00026617  00000+0  13190-2 0  9992
2 43780  97.5181 271.2766 0006963 189.9836 170.1261 15.17706088308905
SPACEBEE-7              
1 43816U 18099BL  24209.16975708  .00015963  00000+0  90681-3 0  9999
2 43816  97.5455 272.4134 0010970 145.9861 214.2075 15.12944298308459
SPACEBEE-6              
1 43818U 18099BN  24209.17919292  .00041304  00000+0  15733-2 0  9990
2 43818  97.5376 278.5009 0009206 148.9805 211.1978 15.26562089309001
SHIELDS 1               
1 43850U 18104B   24209.19096102  .00014787  00000+0  38037-3 0  9999
2 43850  85.0203 255.9297 0007920 279.6716  80.3640 15.39091034312311
SONATE                  
1 44400U 19038Q   24208.90038859  .00025893  00000+0  73427-3 0  9993
2 44400  97.7135 204.8249 0013203 331.7868  28.2659 15.36137028280176
LUCKY-7                 
1 44406U 19038W   24209.04179512  .00049479  00000+0  94159-3 0  9998
2 44406  97.7023 209.7048 0008312 306.7754  53.2731 15.48038290280522
DUCHIFAT-3              
1 44854U 19089C   24209.20558236  .00018544  00000+0  89721-3 0  9991
2 44854  36.9554 165.7799 0003093  62.3140 297.7921 15.17889151254356
M2 PATHFINDER           
1 45727U 20037E   24209.21523226  .00003980  00000+0  34602-3 0  9994
2 45727  97.7786  25.4501 0010985 354.4588   5.6510 14.97509733221930
NETSAT-4                
1 46504U 20068U   24209.14403305  .00011219  00000+0  58414-3 0  9990
2 46504  97.8078 167.3964 0008523 213.2498 146.8199 15.16163813210223
NETSAT-3                
1 46505U 20068V   24209.14415104  .00010795  00000+0  57222-3 0  9995
2 46505  97.8051 166.8526 0007568 221.6616 138.4040 15.15546529210215
NETSAT-1                
1 46506U 20068W   24209.37233690  .00009010  00000+0  50341-3 0  9992
2 46506  97.8069 166.4622 0006312 234.5902 125.4740 15.13735575210206
NETSAT-2                
1 46507U 20068X   24209.16306752  .00011976  00000+0  62416-3 0  9990
2 46507  97.8061 167.0341 0005324 237.7326 122.3391 15.16131377210178
WILDTRACKCUBE-SIMBA     
1 47941U 21022K   24209.40695123  .00015554  00000+0  66634-3 0  9996
2 47941  97.4548 105.8402 0015033  12.8005 347.3610 15.22760899184581
GRBALPHA                
1 47959U 21022AD  24209.39858184  .00022930  00000+0  84334-3 0  9994
2 47959  97.4547 107.9579 0012949   7.0141 353.1277 15.27810956183541
SMOG-1                  
1 47964U 21022AJ  24209.42839774  .06058814  25082-5  18456-2 0  9998
2 47964  97.4302 124.3639 0010937 202.0180 158.0643 16.26713361184600
BCCSAT-1                
1 48041U 21022AK  24209.26589936  .00119677  00000+0  15887-2 0  9990
2 48041  97.4544 117.9887 0000773  53.3552 306.7774 15.57821073184155
BEESAT-7                
1 48084U 21022AN  24209.24756704  .00782299  24147-3  29245-2 0  9995
2 48084  97.4354 120.2136 0007918 157.0164 203.1463 15.87896577184052
BEESAT-8                
1 48085U 21022AP  24208.68800225  .00036668  00000+0  10676-2 0  9999
2 48085  97.4730 111.2404 0010267 359.2102   0.9123 15.35268096183932
LEDSAT                  
1 49069U 21073D   24209.19751785  .00019303  00000+0  73932-3 0  9993
2 49069  97.4351 280.0981 0019750 141.0773 219.1892 15.26396632162556
ROBUSTA-1F (MTCUBE 2)   
1 53109U 22080E   24208.93738902 -.00000003  00000+0  00000+0 0  9999
2 53109  70.1201 178.3004 0007683  79.2298 280.9226  6.42584440 47710
SITRO-AIS 5 (KATYS)     
1 57176U 23091L   24209.41214512  .00008445  00000+0  53236-3 0  9990
2 57176  97.6101 261.2641 0016578 349.5962  10.4921 15.09274265 59562
SITRO-AIS 6 (CHIRKIN)   
1 57192U 23091AC  24209.39573062  .00008017  00000+0  50485-3 0  9991
2 57192  97.6096 261.2752 0016350 349.6001  10.4887 15.09331644 59565
SITRO-AIS 8 (ANOKHIN)   
1 57193U 23091AD  24209.42078028  .00009543  00000+0  59392-3 0  9999
2 57193  97.6095 261.3867 0016138 349.9353  10.1551 15.09708989 59576
SITRO-AIS 7 (FARTUSHNIY)
1 57194U 23091AE  24209.40197247  .00008207  00000+0  51743-3 0  9991
2 57194  97.6097 261.2598 0016255 350.4211   9.6706 15.09282647 59561
SITRO-AIS 10 (BURDAEV)  
1 57199U 23091AK  24209.40842964  .00009608  00000+0  56889-3 0  9991
2 57199  97.6111 262.3973 0010958 339.4950  20.5839 15.11579706 59638
SITRO-AIS 9 (SHCHUKIN)  
1 57201U 23091AM  24209.40721481  .00009389  00000+0  55638-3 0  9992
2 57201  97.6106 262.3733 0010919 339.4177  20.6612 15.11558343 59632
SITRO-AIS 12 (SMIRENNIY)
1 57204U 23091AQ  24209.43079769  .00010440  00000+0  61487-3 0  9992
2 57204  97.6112 262.5439 0010841 331.8577  28.2066 15.11752384 59640
SITRO-AIS 11 (SHEFFER)  
1 57208U 23091AU  24209.41420732  .00009729  00000+0  57188-3 0  9995
2 57208  97.6113 262.5540 0010583 333.1047  26.9633 15.11843671 59643
ROBUSTA-1E (ENSO)       
1 58470U 23185J   24209.45063388  .00017090  00000+0  68966-3 0  9991
2 58470  97.4238 275.7829 0013539 135.4680 224.7648 15.24776602 36278
SITRO-AIS 29            
1 59052U 24039B   24209.41368504  .00024331  00000+0  83669-3 0  9994
2 59052  97.3933 171.1451 0019804  78.9669 281.3797 15.29887947 22746
SITRO-AIS 30            
1 59053U 24039C   24209.41486220  .00024206  00000+0  83439-3 0  9997
2 59053  97.3931 171.1389 0019933  79.5513 280.7972 15.29808843 22738
SITRO-AIS 31            
1 59054U 24039D   24209.40456616  .00024068  00000+0  82598-3 0  9994
2 59054  97.3932 171.1534 0019778  79.4583 280.8884 15.29955740 22759
SITRO-AIS 33            
1 59055U 24039E   24209.39299231  .00024155  00000+0  82539-3 0  9993
2 59055  97.3936 171.1750 0019512  80.1444 280.1998 15.30100820 22746
SITRO-AIS 35            
1 59056U 24039F   24209.38887300  .00024812  00000+0  84718-3 0  9994
2 59056  97.3934 171.1773 0019294  80.4379 279.9040 15.30124604 22747
SITRO-AIS 32            
1 59057U 24039G   24209.33305621  .00023950  00000+0  82162-3 0  9994
2 59057  97.3935 171.1016 0019388  80.7275 279.6157 15.29976782 22736
SITRO-AIS 34            
1 59058U 24039H   24209.32811705  .00025035  00000+0  85644-3 0  9993
2 59058  97.3936 171.1106 0019541  80.5925 279.7524 15.30055261 22730
SITRO-AIS 36            
1 59059U 24039J   24209.44824555  .00025180  00000+0  85804-3 0  9993
2 59059  97.3934 171.2508 0019112  80.3825 279.9574 15.30189333 22754
SITRO-AIS 49            
1 59060U 24039K   24209.38394746  .00025205  00000+0  86042-3 0  9995
2 59060  97.3934 171.1843 0019114  80.2037 280.1361 15.30131216 22747
SITRO-AIS 50            
1 59061U 24039L   24209.43673662  .00026465  00000+0  89791-3 0  9992
2 59061  97.3935 171.2647 0019071  80.0525 280.2867 15.30320943 22754
SITRO-AIS 51            
1 59062U 24039M   24209.43659956  .00025223  00000+0  85633-3 0  9995
2 59062  97.3934 171.2656 0019079  80.0338 280.3055 15.30310223 22754
SITRO-AIS 52            
1 59063U 24039N   24209.42818721  .00023801  00000+0  80545-3 0  9999
2 59063  97.3936 171.2783 0018947  80.1713 280.1666 15.30429085 22752
SITRO-AIS 25            
1 59066U 24039R   24209.42134434  .00003867  00000+0  36920-3 0  9992
2 59066  95.4007 124.6235 0169495 203.9002 155.4284 14.83326892 22072
SITRO-AIS 26            
1 59067U 24039S   24209.42173349  .00003717  00000+0  35540-3 0  9992
2 59067  95.4006 124.6224 0169445 203.9293 155.3987 14.83292100 22070
SITRO-AIS 27            
1 59068U 24039T   24209.40795634  .00003785  00000+0  36059-3 0  9999
2 59068  95.4008 124.6388 0169045 203.7734 155.5614 14.83468454 22074
SITRO-AIS 28            
1 59071U 24039U   24209.40427584  .00004010  00000+0  38161-3 0  9997
2 59071  95.4009 124.6437 0168877 203.7547 155.5815 14.83511623 22078
